[{"OBJECT_NAME":"SCS-01 B","OBJECT_ID":"2025-100B","EPOCH":"2026-03-09T21:49:11.508672","MEAN_MOTION":15.3317485,"ECCENTRICITY":0.00088698,"INCLINATION":97.3706,"RA_OF_ASC_NODE":145.9041,"ARG_OF_PERICENTER":288.6157,"MEAN_ANOMALY":71.4122,"EPHEMERIS_TYPE":0,"CLASSIFICATION_TYPE":"U","NORAD_CAT_ID":63983,"ELEMENT_SET_NO":999,"REV_AT_EPOCH":4567,"BSTAR":0.00098809397,"MEAN_MOTION_DOT":0.00031724,"MEAN_MOTION_DDOT":0},{"OBJECT_NAME":"STARLINK-35341","OBJECT_ID":"2025-232Y","EPOCH":"2026-03-09T12:11:41.288064","MEAN_MOTION":15.30238854,"ECCENTRICITY":0.00012331,"INCLINATION":53.159,"RA_OF_ASC_NODE":105.0333,"ARG_OF_PERICENTER":97.2152,"MEAN_ANOMALY":262.8989,"EPHEMERIS_TYPE":0,"CLASSIFICATION_TYPE":"U","NORAD_CAT_ID":66027,"ELEMENT_SET_NO":999,"REV_AT_EPOCH":2340,"BSTAR":0.00084236334,"MEAN_MOTION_DOT":0.00024702,"MEAN_MOTION_DDOT":0}]
